[{"OBJECT_NAME":"STARLINK-32358","OBJECT_ID":"2024-183Y","EPOCH":"2026-03-09T11:58:54.188256","MEAN_MOTION":15.30187982,"ECCENTRICITY":0.00011129,"INCLINATION":53.1606,"RA_OF_ASC_NODE":143.3115,"ARG_OF_PERICENTER":95.3145,"MEAN_ANOMALY":264.7983,"EPHEMERIS_TYPE":0,"CLASSIFICATION_TYPE":"U","NORAD_CAT_ID":61531,"ELEMENT_SET_NO":999,"REV_AT_EPOCH":7962,"BSTAR":3.0325626e-5,"MEAN_MOTION_DOT":5.39e-6,"MEAN_MOTION_DDOT":0},{"OBJECT_NAME":"SL-14 R\/B","OBJECT_ID":"1981-094B","EPOCH":"2026-03-09T21:30:19.492416","MEAN_MOTION":13.58083744,"ECCENTRICITY":0.08704644,"INCLINATION":82.4854,"RA_OF_ASC_NODE":232.0333,"ARG_OF_PERICENTER":95.3527,"MEAN_ANOMALY":274.7433,"EPHEMERIS_TYPE":0,"CLASSIFICATION_TYPE":"U","NORAD_CAT_ID":12849,"ELEMENT_SET_NO":999,"REV_AT_EPOCH":17275,"BSTAR":0.00019877381,"MEAN_MOTION_DOT":2.264e-5,"MEAN_MOTION_DDOT":0}]
